start=new Date('2023-03-26T00:00:00.000Z').valueOf();
sats=[{"TLE_LINE2":"2 53608  53.2177  44.2682 0001081  85.5436 274.5680 15.08846668 32533","LAUNCH_DATE":"2022-08-28","MEAN_MOTION_DDOT":"0.0000000000000","ARG_OF_PERICENTER":"85.5436","EPOCH":"2023-03-25T07:45:10.123776","DECAY_DATE":null,"OBJECT_ID":"2022-104W","ELEMENT_SET_NO":"999","OBJECT_TYPE":"PAYLOAD","MEAN_MOTION_DOT":"0.00007812","APOAPSIS":"540.473","PERIOD":"95.437","ECCENTRICITY":"0.00010810","REF_FRAME":"TEME","RA_OF_ASC_NODE":"44.2682","INCLINATION":"53.2177","TLE_LINE1":"1 53608U 22104W   23084.32303384  .00007812  00000-0  50829-3 0  9999","GP_ID":"228873254","BSTAR":"0.00050829000000","TIME_SYSTEM":"UTC","MEAN_ELEMENT_THEORY":"SGP4","SITE":"AFETR","REV_AT_EPOCH":"3253","CENTER_NAME":"EARTH","MEAN_MOTION":"15.08846668","CLASSIFICATION_TYPE":"U","PERIAPSIS":"538.977","FILE":"3871104","RCS_SIZE":"LARGE","COUNTRY_CODE":"US","SEMIMAJOR_AXIS":"6917.860","NORAD_CAT_ID":"53608","MEAN_ANOMALY":"274.5680","OBJECT_NAME":"STARLINK-4647","EPHEMERIS_TYPE":"0"},{"LAUNCH_DATE":"2022-08-28","TLE_LINE2":"2 53609  53.2180  48.3877 0001264 131.0322 229.0779 15.08836173 32605","MEAN_MOTION_DDOT":"0.0000000000000","DECAY_DATE":null,"ARG_OF_PERICENTER":"131.0322","EPOCH":"2023-03-25T09:48:57.358080","ELEMENT_SET_NO":"999","OBJECT_ID":"2022-104X","OBJECT_TYPE":"PAYLOAD","MEAN_MOTION_DOT":"0.00000699","ECCENTRICITY":"0.00012640","PERIOD":"95.438","APOAPSIS":"540.632","REF_FRAME":"TEME","GP_ID":"228873504","INCLINATION":"53.2180","RA_OF_ASC_NODE":"48.3877","TLE_LINE1":"1 53609U 22104X   23084.40899720  .00000699  00000-0  62017-4 0  9992","TIME_SYSTEM":"UTC","MEAN_ELEMENT_THEORY":"SGP4","BSTAR":"0.00006201700000","SITE":"AFETR","REV_AT_EPOCH":"3260","CENTER_NAME":"EARTH","PERIAPSIS":"538.883","FILE":"3871104","RCS_SIZE":"LARGE","CLASSIFICATION_TYPE":"U","MEAN_MOTION":"15.08836173","COUNTRY_CODE":"US","NORAD_CAT_ID":"53609","SEMIMAJOR_AXIS":"6917.892","EPHEMERIS_TYPE":"0","MEAN_ANOMALY":"229.0779","OBJECT_NAME":"STARLINK-4660"},{"REF_FRAME":"TEME","GP_ID":"228874256","RA_OF_ASC_NODE":"44.8205","INCLINATION":"53.2200","TLE_LINE1":"1 53610U 22104Y   23084.18415447  .00019903  00000-0  12651-2 0  9994","OBJECT_TYPE":"PAYLOAD","MEAN_MOTION_DOT":"0.00019903","ECCENTRICITY":"0.00008980","PERIOD":"95.438","APOAPSIS":"540.370","DECAY_DATE":null,"ARG_OF_PERICENTER":"88.3941","EPOCH":"2023-03-25T04:25:10.946208","ELEMENT_SET_NO":"999","OBJECT_ID":"2022-104Y","LAUNCH_DATE":"2022-08-28","TLE_LINE2":"2 53610  53.2200  44.8205 0000898  88.3941 271.7154 15.08839051 32518","MEAN_MOTION_DDOT":"0.0000000000000","EPHEMERIS_TYPE":"0","MEAN_ANOMALY":"271.7154","OBJECT_NAME":"STARLINK-4610","COUNTRY_CODE":"US","NORAD_CAT_ID":"53610","SEMIMAJOR_AXIS":"6917.883","CENTER_NAME":"EARTH","PERIAPSIS":"539.127","RCS_SIZE":"LARGE","FILE":"3871104","CLASSIFICATION_TYPE":"U","MEAN_MOTION":"15.08839051","MEAN_ELEMENT_THEORY":"SGP4","TIME_SYSTEM":"UTC","BSTAR":"0.00126510000000","REV_AT_EPOCH":"3251","SITE":"AFETR"},{"ARG_OF_PERICENTER":"104.6481","EPOCH":"2023-03-25T07:50:30.202080","DECAY_DATE":null,"OBJECT_ID":"2022-104Z","ELEMENT_SET_NO":"999","TLE_LINE2":"2 53611  53.2177  44.2918 0001287 104.6481 255.4654 15.08802454 32657","LAUNCH_DATE":"2022-08-28","MEAN_MOTION_DDOT":"0.0000000000000","REF_FRAME":"TEME","INCLINATION":"53.2177","RA_OF_ASC_NODE":"44.2918","TLE_LINE1":"1 53611U 22104Z   23084.32673845  .00017300  00000-0  11035-2 0  9993","GP_ID":"228875007","OBJECT_TYPE":"PAYLOAD","MEAN_MOTION_DOT":"0.00017300","APOAPSIS":"540.751","PERIOD":"95.440","ECCENTRICITY":"0.00012870","CENTER_NAME":"EARTH","MEAN_MOTION":"15.08802454","CLASSIFICATION_TYPE":"U","PERIAPSIS":"538.970","FILE":"3871104","RCS_SIZE":"LARGE","BSTAR":"0.00110350000000","TIME_SYSTEM":"UTC","MEAN_ELEMENT_THEORY":"SGP4","REV_AT_EPOCH":"3265","SITE":"AFETR","MEAN_ANOMALY":"255.4654","OBJECT_NAME":"STARLINK-4650","EPHEMERIS_TYPE":"0","COUNTRY_CODE":"US","SEMIMAJOR_AXIS":"6917.995","NORAD_CAT_ID":"53611"},{"BSTAR":"-0.00118460000000","TIME_SYSTEM":"UTC","MEAN_ELEMENT_THEORY":"SGP4","SITE":"AFETR","REV_AT_EPOCH":"3253","CENTER_NAME":"EARTH","CLASSIFICATION_TYPE":"U","MEAN_MOTION":"15.08781455","PERIAPSIS":"539.056","FILE":"3871104","RCS_SIZE":"LARGE","COUNTRY_CODE":"US","SEMIMAJOR_AXIS":"6918.059","NORAD_CAT_ID":"53612","MEAN_ANOMALY":"273.9630","OBJECT_NAME":"STARLINK-4658","EPHEMERIS_TYPE":"0","TLE_LINE2":"2 53612  53.2192  44.1942 0001255  86.1506 273.9630 15.08781455 32531","LAUNCH_DATE":"2022-08-28","MEAN_MOTION_DDOT":"0.0000000000000","EPOCH":"2023-03-25T07:29:15.502272","ARG_OF_PERICENTER":"86.1506","DECAY_DATE":null,"OBJECT_ID":"2022-104AA","ELEMENT_SET_NO":"999","OBJECT_TYPE":"PAYLOAD","MEAN_MOTION_DOT":"-0.00019061","APOAPSIS":"540.793","PERIOD":"95.441","ECCENTRICITY":"0.00012550","REF_FRAME":"TEME","INCLINATION":"53.2192","RA_OF_ASC_NODE":"44.1942","TLE_LINE1":"1 53612U 22104AA  23084.31198498 -.00019061  00000-0 -11846-2 0  9997","GP_ID":"228873755"},{"MEAN_MOTION":"15.08847047","CLASSIFICATION_TYPE":"U","PERIAPSIS":"538.946","RCS_SIZE":"LARGE","FILE":"3871104","CENTER_NAME":"EARTH","SITE":"AFETR","REV_AT_EPOCH":"3252","BSTAR":"0.00010015000000","TIME_SYSTEM":"UTC","MEAN_ELEMENT_THEORY":"SGP4","MEAN_ANOMALY":"274.5006","OBJECT_NAME":"STARLINK-4655","EPHEMERIS_TYPE":"0","SEMIMAJOR_AXIS":"6917.859","NORAD_CAT_ID":"53613","COUNTRY_CODE":"US","OBJECT_ID":"2022-104AB","ELEMENT_SET_NO":"999","ARG_OF_PERICENTER":"85.6115","EPOCH":"2023-03-25T06:04:28.161408","DECAY_DATE":null,"MEAN_MOTION_DDOT":"0.0000000000000","TLE_LINE2":"2 53613  53.2190  44.5425 0001125  85.6115 274.5006 15.08847047 32529","LAUNCH_DATE":"2022-08-28","RA_OF_ASC_NODE":"44.5425","INCLINATION":"53.2190","TLE_LINE1":"1 53613U 22104AB  23084.25310372  .00001307  00000-0  10015-3 0  9998","GP_ID":"228874005","REF_FRAME":"TEME","APOAPSIS":"540.502","ECCENTRICITY":"0.00011250","PERIOD":"95.437","MEAN_MOTION_DOT":"0.00001307","OBJECT_TYPE":"PAYLOAD"},{"MEAN_MOTION_DDOT":"0.0000000000000","LAUNCH_DATE":"2022-08-28","TLE_LINE2":"2 53616  53.2173  34.0870 0001504  86.7347 273.3817 15.08843700 32788","ELEMENT_SET_NO":"999","OBJECT_ID":"2022-104AE","DECAY_DATE":null,"EPOCH":"2023-03-25T07:42:33.653376","ARG_OF_PERICENTER":"86.7347","PERIOD":"95.437","ECCENTRICITY":"0.00015040","APOAPSIS":"540.775","MEAN_MOTION_DOT":"0.00022221","OBJECT_TYPE":"PAYLOAD","GP_ID":"228874757","RA_OF_ASC_NODE":"34.0870","INCLINATION":"53.2173","TLE_LINE1":"1 53616U 22104AE  23084.32122284  .00022221  00000-0  14097-2 0  9993","REF_FRAME":"TEME","SITE":"AFETR","REV_AT_EPOCH":"3278","TIME_SYSTEM":"UTC","MEAN_ELEMENT_THEORY":"SGP4","BSTAR":"0.00140970000000","PERIAPSIS":"538.694","RCS_SIZE":"LARGE","FILE":"3871104","CLASSIFICATION_TYPE":"U","MEAN_MOTION":"15.08843700","CENTER_NAME":"EARTH","NORAD_CAT_ID":"53616","SEMIMAJOR_AXIS":"6917.869","COUNTRY_CODE":"US","EPHEMERIS_TYPE":"0","MEAN_ANOMALY":"273.3817","OBJECT_NAME":"STARLINK-4605"},{"COUNTRY_CODE":"US","NORAD_CAT_ID":"53617","SEMIMAJOR_AXIS":"6917.805","EPHEMERIS_TYPE":"0","MEAN_ANOMALY":"267.0298","OBJECT_NAME":"STARLINK-4601","TIME_SYSTEM":"UTC","MEAN_ELEMENT_THEORY":"SGP4","BSTAR":"0.00168910000000","REV_AT_EPOCH":"3253","SITE":"AFETR","CENTER_NAME":"EARTH","PERIAPSIS":"539.158","FILE":"3871104","RCS_SIZE":"LARGE","CLASSIFICATION_TYPE":"U","MEAN_MOTION":"15.08864615","MEAN_MOTION_DOT":"0.00026714","OBJECT_TYPE":"PAYLOAD","ECCENTRICITY":"0.00007400","PERIOD":"95.436","APOAPSIS":"540.182","REF_FRAME":"TEME","GP_ID":"228874507","RA_OF_ASC_NODE":"44.1749","INCLINATION":"53.2187","TLE_LINE1":"1 53617U 22104AF  23084.30828954  .00026714  00000-0  16891-2 0  9994","LAUNCH_DATE":"2022-08-28","TLE_LINE2":"2 53617  53.2187  44.1749 0000740  93.0778 267.0298 15.08864615 32535","MEAN_MOTION_DDOT":"0.0000000000000","DECAY_DATE":null,"ARG_OF_PERICENTER":"93.0778","EPOCH":"2023-03-25T07:23:56.216256","ELEMENT_SET_NO":"999","OBJECT_ID":"2022-104AF"},{"CENTER_NAME":"EARTH","PERIAPSIS":"539.283","RCS_SIZE":"LARGE","FILE":"3871104","MEAN_MOTION":"15.08851537","CLASSIFICATION_TYPE":"U","TIME_SYSTEM":"UTC","MEAN_ELEMENT_THEORY":"SGP4","BSTAR":"0.00133880000000","REV_AT_EPOCH":"3193","SITE":"AFETR","EPHEMERIS_TYPE":"0","MEAN_ANOMALY":"269.1140","OBJECT_NAME":"STARLINK-4604","COUNTRY_CODE":"US","SEMIMAJOR_AXIS":"6917.845","NORAD_CAT_ID":"53618","DECAY_DATE":null,"EPOCH":"2023-03-25T03:57:15.456672","ARG_OF_PERICENTER":"90.9922","ELEMENT_SET_NO":"999","OBJECT_ID":"2022-104AG","LAUNCH_DATE":"2022-08-28","TLE_LINE2":"2 53618  53.2186  44.7061 0000617  90.9922 269.1140 15.08851537 31939","MEAN_MOTION_DDOT":"0.0000000000000","REF_FRAME":"TEME","GP_ID":"228873255","INCLINATION":"53.2186","RA_OF_ASC_NODE":"44.7061","TLE_LINE1":"1 53618U 22104AG  23084.16476223  .00021090  00000-0  13388-2 0  9997","OBJECT_TYPE":"PAYLOAD","MEAN_MOTION_DOT":"0.00021090","PERIOD":"95.437","ECCENTRICITY":"0.00006170","APOAPSIS":"540.137"},{"CENTER_NAME":"EARTH","CLASSIFICATION_TYPE":"U","MEAN_MOTION":"15.08857868","FILE":"3871104","RCS_SIZE":"LARGE","PERIAPSIS":"538.868","BSTAR":"0.00044936000000","TIME_SYSTEM":"UTC","MEAN_ELEMENT_THEORY":"SGP4","SITE":"AFETR","REV_AT_EPOCH":"3253","OBJECT_NAME":"STARLINK-4609","MEAN_ANOMALY":"280.7880","EPHEMERIS_TYPE":"0","COUNTRY_CODE":"US","NORAD_CAT_ID":"53619","SEMIMAJOR_AXIS":"6917.826","EPOCH":"2023-03-25T07:18:38.043072","ARG_OF_PERICENTER":"79.3246","DECAY_DATE":null,"OBJECT_ID":"2022-104AH","ELEMENT_SET_NO":"999","TLE_LINE2":"2 53619  53.2190  44.1476 0001189  79.3246 280.7880 15.08857868 32534","LAUNCH_DATE":"2022-08-28","MEAN_MOTION_DDOT":"0.0000000000000","REF_FRAME":"TEME","TLE_LINE1":"1 53619U 22104AH  23084.30460698  .00006874  00000-0  44936-3 0  9990","INCLINATION":"53.2190","RA_OF_ASC_NODE":"44.1476","GP_ID":"228873505","OBJECT_TYPE":"PAYLOAD","MEAN_MOTION_DOT":"0.00006874","APOAPSIS":"540.513","PERIOD":"95.436","ECCENTRICITY":"0.00011890"}];
